H1 CPF 01  gfz 2022 07 14 00  6951 terrasarx 
H2 0702601  6201 31698    2022 07 14 00 59 42 2022 07 19 00 00 42   120 1 1  0 0 0
H9
10 0 59777  75582.000000  0    1172572.716  -2322867.493   6367656.150
10 0 59777  75702.000000  0     511456.376  -1740520.199   6634641.173
10 0 59777  75822.000000  0    -148023.225  -1116245.236   6785036.092
10 0 59777  75942.000000  0    -793722.936   -461073.790   6816214.991
10 0 59777  76062.000000  0   -1413941.108    213219.457   6727632.712
10 0 59777  76182.000000  0   -1997628.892    894327.455   6520833.819
10 0 59777  76302.000000  0   -2534586.716   1569634.545   6199427.413
10 0 59777  76422.000000  0   -3015643.255   2226449.221   5769028.204
10 0 59777  76542.000000  0   -3432814.345   2852243.006   5237164.951
10 0 59777  76662.000000  0   -3779439.651   3434891.491   4613154.909
10 0 59777  76782.000000  0   -4050293.746   3962912.292   3907946.024
10 0 59777  76902.000000  0   -4241669.271   4425696.330   3133928.862
10 0 59777  77022.000000  0   -4351430.024   4813726.723   2304719.529
10 0 59777  77142.000000  0   -4379031.262   5118779.047   1434917.388
10 0 59777  77262.000000  0   -4325508.242   5334097.979    539843.321
10 0 59777  77382.000000  0   -4193433.363   5454546.851   -364736.640
10 0 59777  77502.000000  0   -3986841.221   5476726.711  -1262898.601
10 0 59777  77622.000000  0   -3711122.850   5399057.810  -2138852.037
10 0 59777  77742.000000  0   -3372892.595   5221824.128  -2977224.581
10 0 59777  77862.000000  0   -2979832.300   4947180.617  -3763337.343
10 0 59777  77982.000000  0   -2540517.083   4579121.431  -4483462.845
10 0 59777  78102.000000  0   -2064227.368   4123413.156  -5125061.028
10 0 59777  78222.000000  0   -1560752.784   3587496.447  -5676989.980
10 0 59777  78342.000000  0   -1040191.646   2980357.082  -6129691.386
10 0 59777  78462.000000  0    -512749.418   2312368.167  -6475345.840
10 0 59777  78582.000000  0      11458.783   1595109.123  -6707995.756
10 0 59777  78702.000000  0     522597.419    841164.880  -6823637.888
10 0 59777  78822.000000  0    1011290.632     63908.152  -6820285.483
10 0 59777  78942.000000  0    1468790.531   -722733.612  -6697998.422
10 0 59777  79062.000000  0    1887129.429  -1504521.866  -6458880.709
10 0 59777  79182.000000  0    2259255.744  -2267157.701  -6107048.389
10 0 59777  79302.000000  0    2579151.951  -2996537.282  -5648567.054
10 0 59777  79422.000000  0    2841933.284  -3679011.161  -5091359.329
10 0 59777  79542.000000  0    3043924.678  -4301641.330  -4445077.280
10 0 59777  79662.000000  0    3182712.951  -4852447.778  -3720944.882
10 0 59777  79782.000000  0    3257175.628  -5320644.314  -2931574.118
10 0 59777  79902.000000  0    3267484.519  -5696859.162  -2090751.909
10 0 59777  80022.000000  0    3215082.992  -5973331.053  -1213201.416
10 0 59777  80142.000000  0    3102637.263  -6144077.958   -314322.799
10 0 59777  80262.000000  0    2933961.262  -6205031.890    590083.136
10 0 59777  80382.000000  0    2713917.388  -6154135.938   1484099.343
10 0 59777  80502.000000  0    2448296.504  -5991402.721   2351982.404
10 0 59777  80622.000000  0    2143678.015  -5718928.224   3178449.366
10 0 59777  80742.000000  0    1807275.334  -5340863.805   3948952.985
10 0 59777  80862.000000  0    1446770.586  -4863348.683   4649942.124
10 0 59777  80982.000000  0    1070143.525  -4294403.049   5269101.887
10 0 59777  81102.000000  0     685497.502  -3643785.263   5795570.703
10 0 59777  81222.000000  0     300886.316  -2922814.015   6220127.120
10 0 59777  81342.000000  0     -75852.542  -2144163.960   6535344.247
10 0 59777  81462.000000  0    -437255.306  -1321638.813   6735712.875
10 0 59777  81582.000000  0    -776378.017   -469924.957   6817733.079
10 0 59777  81702.000000  0   -1086928.683    395672.137   6779972.260
10 0 59777  81822.000000  0   -1363383.490   1259502.938   6623088.344
10 0 59777  81942.000000  0   -1601084.697   2105855.972   6349818.801
10 0 59777  82062.000000  0   -1796319.554   2919243.086   5964936.108
10 0 59777  82182.000000  0   -1946378.686   3684683.778   5475169.028
10 0 59777  82302.000000  0   -2049592.783   4387983.649   4889091.583
10 0 59777  82422.000000  0   -2105347.980   5016003.693   4216979.406
10 0 59777  82542.000000  0   -2114078.295   5556913.637   3470633.951
10 0 59777  82662.000000  0   -2077235.877   6000423.724   2663176.945
10 0 59777  82782.000000  0   -1997239.253   6337988.972   1808818.832
10 0 59777  82902.000000  0   -1877400.217   6562982.110    922604.962
10 0 59777  83022.000000  0   -1721830.899   6670829.707     20144.613
10 0 59777  83142.000000  0   -1535334.200   6659108.335   -882671.667
10 0 59777  83262.000000  0   -1323279.580   6527598.655  -1769962.487
10 0 59777  83382.000000  0   -1091466.559   6278290.387  -2626145.850
10 0 59777  83502.000000  0    -845981.876   5915342.183  -3436217.493
10 0 59777  83622.000000  0    -593053.325   5445001.782  -4186014.941
10 0 59777  83742.000000  0    -338903.921   4875486.670  -4862464.253
10 0 59777  83862.000000  0     -89609.436   4216828.672  -5453803.026
10 0 59777  83982.000000  0     149037.735   3480687.020  -5949777.792
10 0 59777  84102.000000  0     371654.974   2680132.919  -6341812.028
10 0 59777  84222.000000  0     573382.994   1829412.171  -6623142.463
10 0 59777  84342.000000  0     749985.751    943691.522  -6788924.950
10 0 59777  84462.000000  0     897934.561     38790.752  -6836309.293
10 0 59777  84582.000000  0    1014475.344   -869095.005  -6764482.828
10 0 59777  84702.000000  0    1097677.943  -1763678.535  -6574681.158
10 0 59777  84822.000000  0    1146467.363  -2628864.053  -6270168.670
10 0 59777  84942.000000  0    1160637.290  -3449030.395  -5856190.645
10 0 59777  85062.000000  0    1140843.700  -4209311.925  -5339892.877
10 0 59777  85182.000000  0    1088580.044  -4895868.396  -4730207.945
10 0 59777  85302.000000  0    1006134.341  -5496140.693  -4037712.542
10 0 59777  85422.000000  0     896527.550  -5999089.124  -3274454.051
10 0 59777  85542.000000  0     763435.048  -6395406.904  -2453748.236
10 0 59777  85662.000000  0     611092.925  -6677704.911  -1589951.421
10 0 59777  85782.000000  0     444190.441  -6840662.289   -698209.098
10 0 59777  85902.000000  0     267751.001  -6881137.053    205813.534
10 0 59777  86022.000000  0      87004.940  -6798234.408   1106212.709
10 0 59777  86142.000000  0     -92742.737  -6593331.155   1987133.952
10 0 59777  86262.000000  0    -266246.432  -6270054.147   2833061.088
10 0 59777  86382.000000  0    -428452.066  -5834211.643   3629099.303
10 0 59778    102.000000  0    -574623.968  -5293679.672   4361242.433
10 0 59778    222.000000  0    -700463.540  -4658251.291   5016622.001
10 0 59778    342.000000  0    -802216.254  -3939449.227   5583733.589
10 0 59778    462.000000  0    -876765.055  -3150307.368   6052637.410
10 0 59778    582.000000  0    -921708.013  -2305124.344   6415127.411
10 0 59778    702.000000  0    -935418.406  -1419199.056   6664866.793
10 0 59778    822.000000  0    -917087.015   -508551.821   6797493.385
10 0 59778    942.000000  0    -866746.497    410366.752   6810691.848
10 0 59778   1062.000000  0    -785275.755   1320972.772   6704231.646
10 0 59778   1182.000000  0    -674384.136   2206847.907   6479970.827
10 0 59778   1302.000000  0    -536576.530   3052034.970   6141825.538
10 0 59778   1422.000000  0    -375100.126   3841326.152   5695706.107
10 0 59778   1542.000000  0    -193873.641   4560539.658   5149418.876
10 0 59778   1662.000000  0       2600.316   5196779.657   4512536.408
10 0 59778   1782.000000  0     209338.140   5738676.463   3796233.940
10 0 59778   1902.000000  0     420990.561   6176595.717   3013097.050
10 0 59778   2022.000000  0     631968.463   6502824.639   2176904.817
10 0 59778   2142.000000  0     836578.357   6711718.044   1302380.148
10 0 59778   2262.000000  0    1029160.559   6799801.676    404925.006
10 0 59778   2382.000000  0    1204229.207   6765833.104   -499658.578
10 0 59778   2502.000000  0    1356608.989   6610817.753  -1395455.331
10 0 59778   2622.000000  0    1481565.080   6337980.104  -2266724.397
10 0 59778   2742.000000  0    1574923.675   5952691.475  -3098182.649
10 0 59778   2862.000000  0    1633180.036   5462355.479  -3875277.561
10 0 59778   2982.000000  0    1653591.692   4876254.327  -4584443.426
10 0 59778   3102.000000  0    1634254.413   4205360.521  -5213335.158
10 0 59778   3222.000000  0    1574159.332   3462120.934  -5751035.936
10 0 59778   3342.000000  0    1473230.746   2660217.928  -6188237.909
10 0 59778   3462.000000  0    1332343.205   1814311.756  -6517391.742
10 0 59778   3582.000000  0    1153319.108    939772.279  -6732825.196
10 0 59778   3702.000000  0     938906.576     52402.256  -6830831.981
10 0 59778   3822.000000  0     692737.468   -831843.722  -6809728.235
10 0 59778   3942.000000  0     419266.479  -1697139.644  -6669876.781
10 0 59778   4062.000000  0     123693.061  -2528062.745  -6413680.948
10 0 59778   4182.000000  0    -188134.055  -3309862.420  -6045550.086
10 0 59778   4302.000000  0    -509828.699  -4028719.969  -5571831.272
10 0 59778   4422.000000  0    -834592.346  -4671992.392  -5000710.291
10 0 59778   4542.000000  0   -1155352.060  -5228439.072  -4342082.136
10 0 59778   4662.000000  0   -1464909.033  -5688426.081  -3607390.239
10 0 59778   4782.000000  0   -1756094.254  -6044103.105  -2809436.125
10 0 59778   4902.000000  0   -2021928.105  -6289549.100  -1962162.380
10 0 59778   5022.000000  0   -2255780.392  -6420883.350  -1080411.163
10 0 59778   5142.000000  0   -2451526.656  -6436337.714   -179661.837
10 0 59778   5262.000000  0   -2603696.901  -6336286.507    724246.808
10 0 59778   5382.000000  0   -2707612.466  -6123232.964   1615403.039
10 0 59778   5502.000000  0   -2759507.414  -5801752.642   2478111.480
10 0 59778   5622.000000  0   -2756631.102  -5378394.639   3297178.332
99
